{
  "type": "FeatureCollection",
  "features": [
    {
      "type": "Feature",
      "properties": {
        "norad_id": 43602,
        "name": "BEIDOU-3 M12 (C26)",
        "group": "beidou",
        "lat": -1.9982179621283778,
        "lon": 8.349702673237093,
        "alt_km": 21548.809089578324,
        "timestamp": "2025-12-26T06:43:29.777002+00:00",
        "meta_object_name": "BEIDOU-3 M12 (C26)",
        "meta_object_id": "2018-067A",
        "meta_epoch": "2025-12-24T22:25:33.195936",
        "meta_mean_motion": 1.86227842,
        "meta_eccentricity": 0.00092394,
        "meta_inclination": 54.1837,
        "meta_ra_of_asc_node": 186.9493,
        "meta_arg_of_pericenter": 41.7428,
        "meta_mean_anomaly": 318.3597,
        "meta_ephemeris_type": 0,
        "meta_classification_type": "U",
        "meta_norad_cat_id": 43602,
        "meta_element_set_no": 999,
        "meta_rev_at_epoch": 4987,
        "meta_bstar": 0,
        "meta_mean_motion_dot": 1.08e-06,
        "meta_mean_motion_ddot": 0,
        "tle_line1": "1 43602U 18067A   25358.93441199  .00000108  00000+0  00000+0 0  9997",
        "tle_line2": "2 43602  54.1837 186.9493 0009239  41.7428 318.3597  1.86227842 49878"
      },
      "geometry": {
        "type": "Point",
        "coordinates": [
          8.349702673237093,
          -1.9982179621283778
        ]
      }
    },
    {
      "type": "Feature",
      "properties": {
        "norad_id": 43603,
        "name": "BEIDOU-3 M11 (C25)",
        "group": "beidou",
        "lat": 54.09517994098692,
        "lon": -79.39216514415301,
        "alt_km": 21512.91117954586,
        "timestamp": "2025-12-26T06:43:29.777014+00:00",
        "meta_object_name": "BEIDOU-3 M11 (C25)",
        "meta_object_id": "2018-067B",
        "meta_epoch": "2025-12-24T12:46:04.310976",
        "meta_mean_motion": 1.86227356,
        "meta_eccentricity": 0.00056287,
        "meta_inclination": 54.181,
        "meta_ra_of_asc_node": 186.927,
        "meta_arg_of_pericenter": 37.873,
        "meta_mean_anomaly": 322.1992,
        "meta_ephemeris_type": 0,
        "meta_classification_type": "U",
        "meta_norad_cat_id": 43603,
        "meta_element_set_no": 999,
        "meta_rev_at_epoch": 4989,
        "meta_bstar": 0,
        "meta_mean_motion_dot": 1.05e-06,
        "meta_mean_motion_ddot": 0,
        "tle_line1": "1 43603U 18067B   25358.53199434  .00000105  00000+0  00000+0 0  9993",
        "tle_line2": "2 43603  54.1810 186.9270 0005628  37.8730 322.1992  1.86227356 49897"
      },
      "geometry": {
        "type": "Point",
        "coordinates": [
          -79.39216514415301,
          54.09517994098692
        ]
      }
    },
    {
      "type": "Feature",
      "properties": {
        "norad_id": 43622,
        "name": "BEIDOU-3 M13 (C32)",
        "group": "beidou",
        "lat": 45.46743628347054,
        "lon": -153.9235861092815,
        "alt_km": 21540.44817676835,
        "timestamp": "2025-12-26T06:43:29.777025+00:00",
        "meta_object_name": "BEIDOU-3 M13 (C32)",
        "meta_object_id": "2018-072A",
        "meta_epoch": "2025-12-22T08:10:31.412640",
        "meta_mean_motion": 1.86231166,
        "meta_eccentricity": 0.00064111,
        "meta_inclination": 56.4667,
        "meta_ra_of_asc_node": 68.5024,
        "meta_arg_of_pericenter": 297.4685,
        "meta_mean_anomaly": 62.5173,
        "meta_ephemeris_type": 0,
        "meta_classification_type": "U",
        "meta_norad_cat_id": 43622,
        "meta_element_set_no": 999,
        "meta_rev_at_epoch": 4936,
        "meta_bstar": 0,
        "meta_mean_motion_dot": -2.9e-07,
        "meta_mean_motion_ddot": 0,
        "tle_line1": "1 43622U 18072A   25356.34064135 -.00000029  00000+0  00000+0 0  9992",
        "tle_line2": "2 43622  56.4667  68.5024 0006411 297.4685  62.5173  1.86231166 49361"
      },
      "geometry": {
        "type": "Point",
        "coordinates": [
          -153.9235861092815,
          45.46743628347054
        ]
      }
    },
    {
      "type": "Feature",
      "properties": {
        "norad_id": 43623,
        "name": "BEIDOU-3 M14 (C33)",
        "group": "beidou",
        "lat": -25.79142272997272,
        "lon": -92.9543236231851,
        "alt_km": 21535.80064534806,
        "timestamp": "2025-12-26T06:43:29.777037+00:00",
        "meta_object_name": "BEIDOU-3 M14 (C33)",
        "meta_object_id": "2018-072B",
        "meta_epoch": "2025-12-23T06:43:13.861056",
        "meta_mean_motion": 1.86231163,
        "meta_eccentricity": 0.00035931,
        "meta_inclination": 56.4696,
        "meta_ra_of_asc_node": 68.4654,
        "meta_arg_of_pericenter": 327.0772,
        "meta_mean_anomaly": 32.9541,
        "meta_ephemeris_type": 0,
        "meta_classification_type": "U",
        "meta_norad_cat_id": 43623,
        "meta_element_set_no": 999,
        "meta_rev_at_epoch": 4937,
        "meta_bstar": 0,
        "meta_mean_motion_dot": -2.6e-07,
        "meta_mean_motion_ddot": 0,
        "tle_line1": "1 43623U 18072B   25357.28002154 -.00000026  00000+0  00000+0 0  9997",
        "tle_line2": "2 43623  56.4696  68.4654 0003593 327.0772  32.9541  1.86231163 49375"
      },
      "geometry": {
        "type": "Point",
        "coordinates": [
          -92.9543236231851,
          -25.79142272997272
        ]
      }
    },
    {
      "type": "Feature",
      "properties": {
        "norad_id": 43647,
        "name": "BEIDOU-3 M16 (C35)",
        "group": "beidou",
        "lat": 51.31168880924502,
        "lon": 62.0573856864375,
        "alt_km": 21520.173189199777,
        "timestamp": "2025-12-26T06:43:29.777048+00:00",
        "meta_object_name": "BEIDOU-3 M16 (C35)",
        "meta_object_id": "2018-078A",
        "meta_epoch": "2025-12-25T01:09:54.550656",
        "meta_mean_motion": 1.86232271,
        "meta_eccentricity": 0.00074722,
        "meta_inclination": 54.2505,
        "meta_ra_of_asc_node": 306.0911,
        "meta_arg_of_pericenter": 20.5834,
        "meta_mean_anomaly": 339.4558,
        "meta_ephemeris_type": 0,
        "meta_classification_type": "U",
        "meta_norad_cat_id": 43647,
        "meta_element_set_no": 999,
        "meta_rev_at_epoch": 4891,
        "meta_bstar": 0,
        "meta_mean_motion_dot": -5.3e-07,
        "meta_mean_motion_ddot": 0,
        "tle_line1": "1 43647U 18078A   25359.04854804 -.00000053  00000+0  00000+0 0  9992",
        "tle_line2": "2 43647  54.2505 306.0911 0007472  20.5834 339.4558  1.86232271 48910"
      },
      "geometry": {
        "type": "Point",
        "coordinates": [
          62.0573856864375,
          51.31168880924502
        ]
      }
    },
    {
      "type": "Feature",
      "properties": {
        "norad_id": 43648,
        "name": "BEIDOU-3 M15 (C34)",
        "group": "beidou",
        "lat": 15.44322232674876,
        "lon": -42.498638736695064,
        "alt_km": 21514.836100390425,
        "timestamp": "2025-12-26T06:43:29.777060+00:00",
        "meta_object_name": "BEIDOU-3 M15 (C34)",
        "meta_object_id": "2018-078B",
        "meta_epoch": "2025-12-24T02:29:34.317888",
        "meta_mean_motion": 1.86232361,
        "meta_eccentricity": 0.0004049,
        "meta_inclination": 54.2473,
        "meta_ra_of_asc_node": 306.125,
        "meta_arg_of_pericenter": 19.767,
        "meta_mean_anomaly": 340.256,
        "meta_ephemeris_type": 0,
        "meta_classification_type": "U",
        "meta_norad_cat_id": 43648,
        "meta_element_set_no": 999,
        "meta_rev_at_epoch": 4891,
        "meta_bstar": 0,
        "meta_mean_motion_dot": -5.2e-07,
        "meta_mean_motion_ddot": 0,
        "tle_line1": "1 43648U 18078B   25358.10386942 -.00000052  00000+0  00000+0 0  9991",
        "tle_line2": "2 43648  54.2473 306.1250 0004049  19.7670 340.2560  1.86232361 48910"
      },
      "geometry": {
        "type": "Point",
        "coordinates": [
          -42.498638736695064,
          15.44322232674876
        ]
      }
    },
    {
      "type": "Feature",
      "properties": {
        "norad_id": 43683,
        "name": "BEIDOU-3 G1 (C59)",
        "group": "beidou",
        "lat": -2.1274942860096964,
        "lon": -24.204907909895216,
        "alt_km": 35793.89473776118,
        "timestamp": "2025-12-26T06:43:29.777071+00:00",
        "meta_object_name": "BEIDOU-3 G1 (C59)",
        "meta_object_id": "2018-085A",
        "meta_epoch": "2025-12-25T12:50:40.529184",
        "meta_mean_motion": 1.00266313,
        "meta_eccentricity": 0.0001423,
        "meta_inclination": 2.6378,
        "meta_ra_of_asc_node": 102.5888,
        "meta_arg_of_pericenter": 44.1806,
        "meta_mean_anomaly": 280.1361,
        "meta_ephemeris_type": 0,
        "meta_classification_type": "U",
        "meta_norad_cat_id": 43683,
        "meta_element_set_no": 999,
        "meta_rev_at_epoch": 2631,
        "meta_bstar": 0,
        "meta_mean_motion_dot": -2.58e-06,
        "meta_mean_motion_ddot": 0,
        "tle_line1": "1 43683U 18085A   25359.53519131 -.00000258  00000+0  00000+0 0  9992",
        "tle_line2": "2 43683   2.6378 102.5888 0001423  44.1806 280.1361  1.00266313 26312"
      },
      "geometry": {
        "type": "Point",
        "coordinates": [
          -24.204907909895216,
          -2.1274942860096964
        ]
      }
    }
  ]
}